[{"OBJECT_NAME":"OBJECT J","OBJECT_ID":"2023-085J","EPOCH":"2026-03-09T22:47:59.920512","MEAN_MOTION":15.31507187,"ECCENTRICITY":0.00067028,"INCLINATION":97.4828,"RA_OF_ASC_NODE":180.1819,"ARG_OF_PERICENTER":41.7877,"MEAN_ANOMALY":318.3875,"EPHEMERIS_TYPE":0,"CLASSIFICATION_TYPE":"U","NORAD_CAT_ID":57012,"ELEMENT_SET_NO":999,"REV_AT_EPOCH":15156,"BSTAR":0.00064525349,"MEAN_MOTION_DOT":0.00019595,"MEAN_MOTION_DDOT":0},{"OBJECT_NAME":"STARLINK-34271","OBJECT_ID":"2025-127Q","EPOCH":"2026-03-09T07:00:57.741408","MEAN_MOTION":15.27599445,"ECCENTRICITY":8.125e-5,"INCLINATION":43.0006,"RA_OF_ASC_NODE":182.2596,"ARG_OF_PERICENTER":236.7164,"MEAN_ANOMALY":123.361,"EPHEMERIS_TYPE":0,"CLASSIFICATION_TYPE":"U","NORAD_CAT_ID":64384,"ELEMENT_SET_NO":999,"REV_AT_EPOCH":4240,"BSTAR":0.0013093836,"MEAN_MOTION_DOT":0.00035966,"MEAN_MOTION_DDOT":0}]
